[{"OBJECT_NAME":"STARLINK-33761","OBJECT_ID":"2025-069Y","EPOCH":"2025-09-09T06:55:38.572896","MEAN_MOTION":15.3021001,"ECCENTRICITY":0.00013273,"INCLINATION":53.1584,"RA_OF_ASC_NODE":264.8923,"ARG_OF_PERICENTER":93.2077,"MEAN_ANOMALY":266.9076,"EPHEMERIS_TYPE":0,"CLASSIFICATION_TYPE":"U","NORAD_CAT_ID":63455,"ELEMENT_SET_NO":999,"REV_AT_EPOCH":2563,"BSTAR":0.0004840026,"MEAN_MOTION_DOT":0.00014007,"MEAN_MOTION_DDOT":0},{"OBJECT_NAME":"STARLINK-33737","OBJECT_ID":"2025-069Z","EPOCH":"2025-09-09T05:30:42.405408","MEAN_MOTION":15.30215992,"ECCENTRICITY":0.00010959,"INCLINATION":53.1592,"RA_OF_ASC_NODE":265.2275,"ARG_OF_PERICENTER":74.3607,"MEAN_ANOMALY":285.7515,"EPHEMERIS_TYPE":0,"CLASSIFICATION_TYPE":"U","NORAD_CAT_ID":63456,"ELEMENT_SET_NO":999,"REV_AT_EPOCH":2551,"BSTAR":0.00084268862,"MEAN_MOTION_DOT":0.00024694,"MEAN_MOTION_DDOT":0},{"OBJECT_NAME":"STARLINK-33795","OBJECT_ID":"2025-069AA","EPOCH":"2025-09-09T06:10:12.751392","MEAN_MOTION":15.30201671,"ECCENTRICITY":0.0001139,"INCLINATION":53.1575,"RA_OF_ASC_NODE":265.4121,"ARG_OF_PERICENTER":78.8811,"MEAN_ANOMALY":281.2317,"EPHEMERIS_TYPE":0,"CLASSIFICATION_TYPE":"U","NORAD_CAT_ID":63457,"ELEMENT_SET_NO":999,"REV_AT_EPOCH":2551,"BSTAR":0.0006549414,"MEAN_MOTION_DOT":0.00019089,"MEAN_MOTION_DDOT":0},{"OBJECT_NAME":"STARLINK-33756","OBJECT_ID":"2025-069AB","EPOCH":"2025-09-09T06:14:46.308480","MEAN_MOTION":15.30207068,"ECCENTRICITY":0.00015281,"INCLINATION":53.1572,"RA_OF_ASC_NODE":265.4197,"ARG_OF_PERICENTER":103.2631,"MEAN_ANOMALY":256.854,"EPHEMERIS_TYPE":0,"CLASSIFICATION_TYPE":"U","NORAD_CAT_ID":63458,"ELEMENT_SET_NO":999,"REV_AT_EPOCH":2562,"BSTAR":0.00068136585,"MEAN_MOTION_DOT":0.00019879,"MEAN_MOTION_DDOT":0},{"OBJECT_NAME":"STARLINK-33780","OBJECT_ID":"2025-069AC","EPOCH":"2025-09-09T05:26:09.570624","MEAN_MOTION":15.3020653,"ECCENTRICITY":0.00015061,"INCLINATION":53.1593,"RA_OF_ASC_NODE":265.2115,"ARG_OF_PERICENTER":81.6808,"MEAN_ANOMALY":278.4364,"EPHEMERIS_TYPE":0,"CLASSIFICATION_TYPE":"U","NORAD_CAT_ID":63459,"ELEMENT_SET_NO":999,"REV_AT_EPOCH":2551,"BSTAR":0.00069157149,"MEAN_MOTION_DOT":0.00020183,"MEAN_MOTION_DDOT":0},{"OBJECT_NAME":"STARLINK-33679","OBJECT_ID":"2025-070A","EPOCH":"2025-09-09T05:53:11.651136","MEAN_MOTION":15.27606957,"ECCENTRICITY":0.0001027,"INCLINATION":43.001,"RA_OF_ASC_NODE":204.8157,"ARG_OF_PERICENTER":265.5951,"MEAN_ANOMALY":94.4784,"EPHEMERIS_TYPE":0,"CLASSIFICATION_TYPE":"U","NORAD_CAT_ID":63460,"ELEMENT_SET_NO":999,"REV_AT_EPOCH":2522,"BSTAR":0.00082815291,"MEAN_MOTION_DOT":0.00022615,"MEAN_MOTION_DDOT":0},{"OBJECT_NAME":"STARLINK-33706","OBJECT_ID":"2025-070B","EPOCH":"2025-09-09T05:58:44.492448","MEAN_MOTION":15.27562569,"ECCENTRICITY":1.725e-5,"INCLINATION":43.0018,"RA_OF_ASC_NODE":204.8131,"ARG_OF_PERICENTER":297.5189,"MEAN_ANOMALY":62.5645,"EPHEMERIS_TYPE":0,"CLASSIFICATION_TYPE":"U","NORAD_CAT_ID":63461,"ELEMENT_SET_NO":999,"REV_AT_EPOCH":2522,"BSTAR":0.00075185631,"MEAN_MOTION_DOT":0.00020474,"MEAN_MOTION_DDOT":0},{"OBJECT_NAME":"STARLINK-33691","OBJECT_ID":"2025-070C","EPOCH":"2025-09-09T03:10:34.314240","MEAN_MOTION":15.27604015,"ECCENTRICITY":0.00014913,"INCLINATION":43.0024,"RA_OF_ASC_NODE":204.7911,"ARG_OF_PERICENTER":275.9176,"MEAN_ANOMALY":84.1505,"EPHEMERIS_TYPE":0,"CLASSIFICATION_TYPE":"U","NORAD_CAT_ID":63462,"ELEMENT_SET_NO":999,"REV_AT_EPOCH":2516,"BSTAR":0.00086151268,"MEAN_MOTION_DOT":0.00023538,"MEAN_MOTION_DDOT":0},{"OBJECT_NAME":"STARLINK-33696","OBJECT_ID":"2025-070D","EPOCH":"2025-09-09T03:47:34.586880","MEAN_MOTION":15.27601963,"ECCENTRICITY":0.00011404,"INCLINATION":42.9991,"RA_OF_ASC_NODE":204.9842,"ARG_OF_PERICENTER":272.5439,"MEAN_ANOMALY":87.5282,"EPHEMERIS_TYPE":0,"CLASSIFICATION_TYPE":"U","NORAD_CAT_ID":63463,"ELEMENT_SET_NO":999,"REV_AT_EPOCH":2521,"BSTAR":0.00069725589,"MEAN_MOTION_DOT":0.00018987,"MEAN_MOTION_DDOT":0},{"OBJECT_NAME":"STARLINK-33701","OBJECT_ID":"2025-070E","EPOCH":"2025-09-09T06:04:17.802048","MEAN_MOTION":15.27657183,"ECCENTRICITY":7.237e-5,"INCLINATION":43.0068,"RA_OF_ASC_NODE":204.8393,"ARG_OF_PERICENTER":296.7115,"MEAN_ANOMALY":63.3662,"EPHEMERIS_TYPE":0,"CLASSIFICATION_TYPE":"U","NORAD_CAT_ID":63464,"ELEMENT_SET_NO":999,"REV_AT_EPOCH":2522,"BSTAR":0.0017333685,"MEAN_MOTION_DOT":0.00047859,"MEAN_MOTION_DDOT":0},{"OBJECT_NAME":"STARLINK-33685","OBJECT_ID":"2025-070F","EPOCH":"2025-09-09T05:38:22.871616","MEAN_MOTION":15.27663442,"ECCENTRICITY":0.00019239,"INCLINATION":43.0006,"RA_OF_ASC_NODE":204.7004,"ARG_OF_PERICENTER":265.2222,"MEAN_ANOMALY":94.841,"EPHEMERIS_TYPE":0,"CLASSIFICATION_TYPE":"U","NORAD_CAT_ID":63465,"ELEMENT_SET_NO":999,"REV_AT_EPOCH":2522,"BSTAR":0.0032022505,"MEAN_MOTION_DOT":0.00089156,"MEAN_MOTION_DDOT":0},{"OBJECT_NAME":"STARLINK-33654","OBJECT_ID":"2025-070G","EPOCH":"2025-09-09T05:23:34.910304","MEAN_MOTION":15.27605345,"ECCENTRICITY":0.00011682,"INCLINATION":42.9999,"RA_OF_ASC_NODE":204.6223,"ARG_OF_PERICENTER":269.6277,"MEAN_ANOMALY":90.4441,"EPHEMERIS_TYPE":0,"CLASSIFICATION_TYPE":"U","NORAD_CAT_ID":63466,"ELEMENT_SET_NO":999,"REV_AT_EPOCH":2522,"BSTAR":0.00083985548,"MEAN_MOTION_DOT":0.00022939,"MEAN_MOTION_DDOT":0},{"OBJECT_NAME":"STARLINK-33697","OBJECT_ID":"2025-070H","EPOCH":"2025-09-09T05:27:17.027424","MEAN_MOTION":15.27605949,"ECCENTRICITY":0.00011866,"INCLINATION":42.9995,"RA_OF_ASC_NODE":204.6551,"ARG_OF_PERICENTER":276.2896,"MEAN_ANOMALY":83.7821,"EPHEMERIS_TYPE":0,"CLASSIFICATION_TYPE":"U","NORAD_CAT_ID":63467,"ELEMENT_SET_NO":999,"REV_AT_EPOCH":2522,"BSTAR":0.00083209059,"MEAN_MOTION_DOT":0.00022724,"MEAN_MOTION_DDOT":0},{"OBJECT_NAME":"STARLINK-33720","OBJECT_ID":"2025-070J","EPOCH":"2025-09-09T05:29:07.679904","MEAN_MOTION":15.27606237,"ECCENTRICITY":0.0001322,"INCLINATION":43.0012,"RA_OF_ASC_NODE":204.6526,"ARG_OF_PERICENTER":261.1266,"MEAN_ANOMALY":98.9436,"EPHEMERIS_TYPE":0,"CLASSIFICATION_TYPE":"U","NORAD_CAT_ID":63468,"ELEMENT_SET_NO":999,"REV_AT_EPOCH":2522,"BSTAR":0.0008386626,"MEAN_MOTION_DOT":0.00022906,"MEAN_MOTION_DDOT":0},{"OBJECT_NAME":"STARLINK-33587","OBJECT_ID":"2025-070K","EPOCH":"2025-09-09T05:06:55.662336","MEAN_MOTION":15.27604058,"ECCENTRICITY":0.0001225,"INCLINATION":42.9997,"RA_OF_ASC_NODE":204.536,"ARG_OF_PERICENTER":274.4273,"MEAN_ANOMALY":85.6438,"EPHEMERIS_TYPE":0,"CLASSIFICATION_TYPE":"U","NORAD_CAT_ID":63469,"ELEMENT_SET_NO":999,"REV_AT_EPOCH":2522,"BSTAR":0.00086960096,"MEAN_MOTION_DOT":0.00023762,"MEAN_MOTION_DDOT":0},{"OBJECT_NAME":"STARLINK-33637","OBJECT_ID":"2025-070L","EPOCH":"2025-09-09T04:35:41.064000","MEAN_MOTION":15.27601602,"ECCENTRICITY":0.0001462,"INCLINATION":43.0018,"RA_OF_ASC_NODE":205.2377,"ARG_OF_PERICENTER":275.7718,"MEAN_ANOMALY":84.2967,"EPHEMERIS_TYPE":0,"CLASSIFICATION_TYPE":"U","NORAD_CAT_ID":63470,"ELEMENT_SET_NO":999,"REV_AT_EPOCH":2521,"BSTAR":0.00077693838,"MEAN_MOTION_DOT":0.00021193,"MEAN_MOTION_DDOT":0}]
