STARLINK-33761          
1 63455U 25069Y   25252.28864089  .00014007  00000+0  48400-3 0  9996
2 63455  53.1584 264.8923 0001327  93.2077 266.9076 15.30210010 25631
STARLINK-33737          
1 63456U 25069Z   25252.22965747  .00024694  00000+0  84269-3 0  9990
2 63456  53.1592 265.2275 0001095  74.3607 285.7515 15.30215992 25515
STARLINK-33795          
1 63457U 25069AA  25252.25709203  .00019089  00000+0  65494-3 0  9998
2 63457  53.1575 265.4121 0001139  78.8811 281.2317 15.30201671 25514
STARLINK-33756          
1 63458U 25069AB  25252.26025820  .00019879  00000+0  68137-3 0  9990
2 63458  53.1572 265.4197 0001528 103.2631 256.8540 15.30207068 25624
STARLINK-33780          
1 63459U 25069AC  25252.22649966  .00020183  00000+0  69157-3 0  9993
2 63459  53.1593 265.2115 0001506  81.6808 278.4364 15.30206530 25512
STARLINK-33679          
1 63460U 25070A   25252.24527374  .00022615  00000+0  82815-3 0  9995
2 63460  43.0010 204.8157 0001027 265.5951  94.4784 15.27606957 25224
STARLINK-33706          
1 63461U 25070B   25252.24912607  .00020474  00000+0  75186-3 0  9997
2 63461  43.0018 204.8131 0000172 297.5189  62.5645 15.27562569 25225
STARLINK-33691          
1 63462U 25070C   25252.13234160  .00023538  00000+0  86151-3 0  9995
2 63462  43.0024 204.7911 0001491 275.9176  84.1505 15.27604015 25160
STARLINK-33696          
1 63463U 25070D   25252.15803920  .00018987  00000+0  69726-3 0  9995
2 63463  42.9991 204.9842 0001140 272.5439  87.5282 15.27601963 25217
STARLINK-33701          
1 63464U 25070E   25252.25298382  .00047859  00000+0  17334-2 0  9994
2 63464  43.0068 204.8393 0000723 296.7115  63.3662 15.27657183 25220
STARLINK-33685          
1 63465U 25070F   25252.23498694  .00089156  00000+0  32023-2 0  9999
2 63465  43.0006 204.7004 0001923 265.2222  94.8410 15.27663442 25229
STARLINK-33654          
1 63466U 25070G   25252.22470961  .00022939  00000+0  83986-3 0  9997
2 63466  42.9999 204.6223 0001168 269.6277  90.4441 15.27605345 25224
STARLINK-33697          
1 63467U 25070H   25252.22728041  .00022724  00000+0  83209-3 0  9993
2 63467  42.9995 204.6551 0001186 276.2896  83.7821 15.27605949 25223
STARLINK-33720          
1 63468U 25070J   25252.22856111  .00022906  00000+0  83866-3 0  9995
2 63468  43.0012 204.6526 0001322 261.1266  98.9436 15.27606237 25225
STARLINK-33587          
1 63469U 25070K   25252.21314424  .00023762  00000+0  86960-3 0  9990
2 63469  42.9997 204.5360 0001225 274.4273  85.6438 15.27604058 25222
STARLINK-33637          
1 63470U 25070L   25252.19144750  .00021193  00000+0  77694-3 0  9992
2 63470  43.0018 205.2377 0001462 275.7718  84.2967 15.27601602 25210
